{"fetched_at":"2026-03-29T02:12:04Z","count":15717,"tles":[{"name":"STARLINK-35457","line1":"1 66433U 25259M   26087.58099227  .00040691  00000+0  14778-2 0  9998","line2":"2 66433  43.0008 167.3819 0001295 269.3943  90.6760 15.27630051 22380","category":"Starlink"}]}